[{"OBJECT_NAME":"OBJECT AD","OBJECT_ID":"2023-085AD","EPOCH":"2026-03-09T21:41:29.115744","MEAN_MOTION":15.31779154,"ECCENTRICITY":0.00101154,"INCLINATION":97.4841,"RA_OF_ASC_NODE":180.2223,"ARG_OF_PERICENTER":77.5993,"MEAN_ANOMALY":282.638,"EPHEMERIS_TYPE":0,"CLASSIFICATION_TYPE":"U","NORAD_CAT_ID":57031,"ELEMENT_SET_NO":999,"REV_AT_EPOCH":15156,"BSTAR":0.00068352515,"MEAN_MOTION_DOT":0.00020961,"MEAN_MOTION_DDOT":0},{"OBJECT_NAME":"STARLINK-34648","OBJECT_ID":"2025-167P","EPOCH":"2026-03-09T06:37:36.361056","MEAN_MOTION":15.30198253,"ECCENTRICITY":0.00012785,"INCLINATION":53.1615,"RA_OF_ASC_NODE":28.7842,"ARG_OF_PERICENTER":62.5742,"MEAN_ANOMALY":297.5389,"EPHEMERIS_TYPE":0,"CLASSIFICATION_TYPE":"U","NORAD_CAT_ID":65091,"ELEMENT_SET_NO":999,"REV_AT_EPOCH":3341,"BSTAR":0.0010005854,"MEAN_MOTION_DOT":0.00029391,"MEAN_MOTION_DDOT":0}]
